[{"OBJECT_NAME":"STARLINK-5864","OBJECT_ID":"2023-037AC","EPOCH":"2026-03-09T21:53:20.184288","MEAN_MOTION":14.98316778,"ECCENTRICITY":0.0002723,"INCLINATION":69.998,"RA_OF_ASC_NODE":283.8894,"ARG_OF_PERICENTER":269.3008,"MEAN_ANOMALY":90.7839,"EPHEMERIS_TYPE":0,"CLASSIFICATION_TYPE":"U","NORAD_CAT_ID":55940,"ELEMENT_SET_NO":999,"REV_AT_EPOCH":16401,"BSTAR":5.7458998e-5,"MEAN_MOTION_DOT":5.92e-6,"MEAN_MOTION_DDOT":0},{"OBJECT_NAME":"IKONOS 2","OBJECT_ID":"1999-051A","EPOCH":"2026-03-09T15:19:40.153152","MEAN_MOTION":14.96976552,"ECCENTRICITY":0.0006412,"INCLINATION":98.1486,"RA_OF_ASC_NODE":313.4587,"ARG_OF_PERICENTER":157.8343,"MEAN_ANOMALY":202.3156,"EPHEMERIS_TYPE":0,"CLASSIFICATION_TYPE":"U","NORAD_CAT_ID":25919,"ELEMENT_SET_NO":999,"REV_AT_EPOCH":42402,"BSTAR":0.00024901,"MEAN_MOTION_DOT":2.801e-5,"MEAN_MOTION_DDOT":0}]
